{"fetched_at":"2026-07-22T07:09:44.134Z","source":"https://celestrak.org/NORAD/elements/gp.php?NAME=GLOBAL&FORMAT=JSON","constellation":"blacksky-gen2","records":[{"OBJECT_NAME":"GLOBAL-2","OBJECT_ID":"2018-099BG","EPOCH":"2026-07-21T13:29:06.536544","CLASSIFICATION_TYPE":"U","MEAN_MOTION":15.08852126,"ECCENTRICITY":0.0006976,"INCLINATION":97.3547,"RA_OF_ASC_NODE":237.6464,"ARG_OF_PERICENTER":49.5948,"MEAN_ANOMALY":310.5889,"EPHEMERIS_TYPE":0,"NORAD_CAT_ID":43812,"ELEMENT_SET_NO":999,"REV_AT_EPOCH":41709,"BSTAR":0.0001474365,"MEAN_MOTION_DOT":0.00002262,"MEAN_MOTION_DDOT":0},{"OBJECT_NAME":"GLOBAL-4","OBJECT_ID":"2019-054E","EPOCH":"2026-07-21T12:32:44.387808","CLASSIFICATION_TYPE":"U","MEAN_MOTION":15.67622519,"ECCENTRICITY":0.00064056,"INCLINATION":45.0059,"RA_OF_ASC_NODE":37.7935,"ARG_OF_PERICENTER":235.3523,"MEAN_ANOMALY":124.6772,"EPHEMERIS_TYPE":0,"NORAD_CAT_ID":44499,"ELEMENT_SET_NO":999,"REV_AT_EPOCH":38574,"BSTAR":0.00052669758,"MEAN_MOTION_DOT":0.0005903,"MEAN_MOTION_DDOT":0},{"OBJECT_NAME":"GLOBAL-9","OBJECT_ID":"2021-023G","EPOCH":"2026-07-21T14:25:11.333568","CLASSIFICATION_TYPE":"U","MEAN_MOTION":15.4779449,"ECCENTRICITY":0.00042682,"INCLINATION":44.9816,"RA_OF_ASC_NODE":56.9149,"ARG_OF_PERICENTER":209.6116,"MEAN_ANOMALY":150.4534,"EPHEMERIS_TYPE":0,"NORAD_CAT_ID":47971,"ELEMENT_SET_NO":999,"REV_AT_EPOCH":30027,"BSTAR":0.00040914833,"MEAN_MOTION_DOT":0.00021415,"MEAN_MOTION_DDOT":0},{"OBJECT_NAME":"GLOBAL-14","OBJECT_ID":"2021-106A","EPOCH":"2026-07-21T01:52:10.943616","CLASSIFICATION_TYPE":"U","MEAN_MOTION":15.52020414,"ECCENTRICITY":0.00184858,"INCLINATION":42.0038,"RA_OF_ASC_NODE":89.4337,"ARG_OF_PERICENTER":262.3295,"MEAN_ANOMALY":97.545,"EPHEMERIS_TYPE":0,"NORAD_CAT_ID":49469,"ELEMENT_SET_NO":999,"REV_AT_EPOCH":26339,"BSTAR":0.00031387937,"MEAN_MOTION_DOT":0.00019262,"MEAN_MOTION_DDOT":0},{"OBJECT_NAME":"GLOBAL-12","OBJECT_ID":"2021-115BA","EPOCH":"2026-07-21T08:07:01.953120","CLASSIFICATION_TYPE":"U","MEAN_MOTION":15.5555974,"ECCENTRICITY":0.00030675,"INCLINATION":53.1934,"RA_OF_ASC_NODE":240.071,"ARG_OF_PERICENTER":79.0292,"MEAN_ANOMALY":281.1065,"EPHEMERIS_TYPE":0,"NORAD_CAT_ID":49772,"ELEMENT_SET_NO":999,"REV_AT_EPOCH":26121,"BSTAR":0.00035126477,"MEAN_MOTION_DOT":0.00024062,"MEAN_MOTION_DDOT":0},{"OBJECT_NAME":"GLOBAL-13","OBJECT_ID":"2021-115BB","EPOCH":"2026-07-21T15:00:25.829280","CLASSIFICATION_TYPE":"U","MEAN_MOTION":15.47266414,"ECCENTRICITY":0.00001798,"INCLINATION":53.1959,"RA_OF_ASC_NODE":250.7165,"ARG_OF_PERICENTER":79.0902,"MEAN_ANOMALY":281.0127,"EPHEMERIS_TYPE":0,"NORAD_CAT_ID":49773,"ELEMENT_SET_NO":999,"REV_AT_EPOCH":26109,"BSTAR":0.00033175284,"MEAN_MOTION_DOT":0.0001678,"MEAN_MOTION_DDOT":0},{"OBJECT_NAME":"GLOBAL-17","OBJECT_ID":"2021-120A","EPOCH":"2026-07-21T08:42:20.291904","CLASSIFICATION_TYPE":"U","MEAN_MOTION":15.53923674,"ECCENTRICITY":0.00139147,"INCLINATION":41.9931,"RA_OF_ASC_NODE":205.3744,"ARG_OF_PERICENTER":138.9111,"MEAN_ANOMALY":221.2784,"EPHEMERIS_TYPE":0,"NORAD_CAT_ID":49949,"ELEMENT_SET_NO":999,"REV_AT_EPOCH":26021,"BSTAR":0.00036093746,"MEAN_MOTION_DOT":0.00023743,"MEAN_MOTION_DDOT":0},{"OBJECT_NAME":"GLOBAL-16","OBJECT_ID":"2021-120B","EPOCH":"2026-07-21T10:10:44.120928","CLASSIFICATION_TYPE":"U","MEAN_MOTION":15.51662987,"ECCENTRICITY":0.00117639,"INCLINATION":41.9932,"RA_OF_ASC_NODE":209.4073,"ARG_OF_PERICENTER":129.0442,"MEAN_ANOMALY":231.1451,"EPHEMERIS_TYPE":0,"NORAD_CAT_ID":49950,"ELEMENT_SET_NO":999,"REV_AT_EPOCH":26016,"BSTAR":0.00030432699,"MEAN_MOTION_DOT":0.00018344,"MEAN_MOTION_DDOT":0},{"OBJECT_NAME":"GLOBAL-18","OBJECT_ID":"2022-034B","EPOCH":"2026-07-21T10:24:09.196992","CLASSIFICATION_TYPE":"U","MEAN_MOTION":15.47411705,"ECCENTRICITY":0.00046452,"INCLINATION":52.9813,"RA_OF_ASC_NODE":92.8219,"ARG_OF_PERICENTER":41.0913,"MEAN_ANOMALY":319.0442,"EPHEMERIS_TYPE":0,"NORAD_CAT_ID":52196,"ELEMENT_SET_NO":999,"REV_AT_EPOCH":24226,"BSTAR":0.00038940399,"MEAN_MOTION_DOT":0.00019888,"MEAN_MOTION_DDOT":0},{"OBJECT_NAME":"GLOBAL-19","OBJECT_ID":"2023-041B","EPOCH":"2026-07-21T10:35:55.049568","CLASSIFICATION_TYPE":"U","MEAN_MOTION":15.38794014,"ECCENTRICITY":0.00103367,"INCLINATION":42.0028,"RA_OF_ASC_NODE":2.0117,"ARG_OF_PERICENTER":256.8513,"MEAN_ANOMALY":103.1174,"EPHEMERIS_TYPE":0,"NORAD_CAT_ID":55982,"ELEMENT_SET_NO":999,"REV_AT_EPOCH":18720,"BSTAR":0.00029511543,"MEAN_MOTION_DOT":0.00011345,"MEAN_MOTION_DDOT":0},{"OBJECT_NAME":"GLOBAL-5","OBJECT_ID":"2023-041C","EPOCH":"2026-07-21T11:22:53.003712","CLASSIFICATION_TYPE":"U","MEAN_MOTION":15.38811604,"ECCENTRICITY":0.000922,"INCLINATION":42.0019,"RA_OF_ASC_NODE":1.346,"ARG_OF_PERICENTER":252.672,"MEAN_ANOMALY":107.3111,"EPHEMERIS_TYPE":0,"NORAD_CAT_ID":55983,"ELEMENT_SET_NO":999,"REV_AT_EPOCH":18721,"BSTAR":0.00033589592,"MEAN_MOTION_DOT":0.00012957,"MEAN_MOTION_DDOT":0}]}
