{"epoch":1784710044,"count":18256,"objects":[{"id":"43812","name":"GLOBAL-2","type":"PAYLOAD","l1":"1 43812U 18099BG  26202.56188121  .00002262  00000-0  14744-3 0  9994","l2":"2 43812  97.3547 237.6464 0006976  49.5948 310.5889 15.08852126417097"},{"id":"44499","name":"GLOBAL-4","type":"PAYLOAD","l1":"1 44499U 19054E   26202.52273597  .00059030  00000-0  52670-3 0  9991","l2":"2 44499  45.0059  37.7935 0006406 235.3523 124.6772 15.67622519385748"},{"id":"47971","name":"GLOBAL-9","type":"PAYLOAD","l1":"1 47971U 21023G   26202.60082562  .00021415  00000-0  40915-3 0  9992","l2":"2 47971  44.9816  56.9149 0004268 209.6116 150.4534 15.47794490300275"},{"id":"49469","name":"GLOBAL-14","type":"PAYLOAD","l1":"1 49469U 21106A   26202.07790444  .00019262  00000-0  31388-3 0  9995","l2":"2 49469  42.0038  89.4337 0018486 262.3295  97.5450 15.52020414263398"},{"id":"49772","name":"GLOBAL-12","type":"PAYLOAD","l1":"1 49772U 21115BA  26202.33821705  .00024062  00000-0  35126-3 0  9994","l2":"2 49772  53.1934 240.0710 0003067  79.0292 281.1065 15.55559740261216"},{"id":"49773","name":"GLOBAL-13","type":"PAYLOAD","l1":"1 49773U 21115BB  26202.62529895  .00016780  00000-0  33175-3 0  9992","l2":"2 49773  53.1959 250.7165 0000180  79.0902 281.0127 15.47266414261095"},{"id":"49949","name":"GLOBAL-17","type":"PAYLOAD","l1":"1 49949U 21120A   26202.36273486  .00023743  00000-0  36094-3 0  9996","l2":"2 49949  41.9931 205.3744 0013915 138.9111 221.2784 15.53923674260214"},{"id":"49950","name":"GLOBAL-16","type":"PAYLOAD","l1":"1 49950U 21120B   26202.42412177  .00018344  00000-0  30433-3 0  9999","l2":"2 49950  41.9932 209.4073 0011764 129.0442 231.1451 15.51662987260165"},{"id":"52196","name":"GLOBAL-18","type":"PAYLOAD","l1":"1 52196U 22034B   26202.43343978  .00019888  00000-0  38940-3 0  9998","l2":"2 52196  52.9813  92.8219 0004645  41.0913 319.0442 15.47411705242265"},{"id":"55982","name":"GLOBAL-19","type":"PAYLOAD","l1":"1 55982U 23041B   26202.44160937  .00011345  00000-0  29512-3 0  9991","l2":"2 55982  42.0028   2.0117 0010337 256.8513 103.1174 15.38794014187209"},{"id":"55983","name":"GLOBAL-5","type":"PAYLOAD","l1":"1 55983U 23041C   26202.47422458  .00012957  00000-0  33590-3 0  9995","l2":"2 55983  42.0019   1.3460 0009220 252.6720 107.3111 15.38811604187219"}]}